TRANSPORTER-11 OBJECT A 
1 60468U 24149A   26087.89243535  .00011688  00000+0  38610-3 0  9990
2 60468  97.3759 168.1461 0004615 133.6733 226.4891 15.31531841 89769
WARATAH SEED-1          
1 60469U 24149B   26087.79433147  .00016239  00000+0  49784-3 0  9991
2 60469  97.3719 168.4126 0003130 133.7516 226.3986 15.33850841 89780
PHISAT 2                
1 60470U 24149C   26087.82388460  .00009081  00000+0  31656-3 0  9990
2 60470  97.3785 167.5510 0002719 133.2963 226.8504 15.29861737 89709
LEMUR-2-TOMATOKECHUP    
1 60471U 24149D   26087.93494493  .00014108  00000+0  42695-3 0  9998
2 60471  97.3819 169.8768 0002935 137.0240 223.1233 15.34295691 89859
CONNECTA IOT-1          
1 60472U 24149E   26087.75394151  .00004177  00000+0  18127-3 0  9997
2 60472  97.3793 165.4311 0002345 154.8510 205.2841 15.22874699 89550
LOPEN                   
1 60473U 24149F   26087.93617616  .00019188  00000+0  52676-3 0  9997
2 60473  97.3797 170.8162 0002257 145.6527 214.4864 15.37288778 89928
ROCK                    
1 60474U 24149G   26087.46737617  .00018723  00000+0  51415-3 0  9994
2 60474  97.3790 170.3642 0002638 145.7479 214.3936 15.37284619 89851
CONNECTA IOT-3          
1 60475U 24149H   26087.77582903  .00004988  00000+0  21583-3 0  9996
2 60475  97.3770 165.2299 0003460 159.0155 201.1224 15.22881066 89569
QUBE                    
1 60476U 24149J   26087.75011859  .00028201  00000+0  63100-3 0  9997
2 60476  97.3793 172.8616 0003096 145.9972 214.1475 15.43437193 90046
WREN-1                  
1 60478U 24149L   26087.75627041  .00025158  00000+0  66650-3 0  9996
2 60478  97.3785 171.2142 0004990 176.1404 183.9880 15.38327127 89945
TOMORROW-S1             
1 60479U 24149M   26087.93560679  .00009524  00000+0  31513-3 0  9999
2 60479  97.3775 168.7249 0003567 147.9749 212.1710 15.31537174 89801
FLOCK 4BE-18            
1 60480U 24149N   26087.79699525  .00023744  00000+0  61370-3 0  9992
2 60480  97.3753 170.8433 0004655 170.1380 189.9958 15.39100500 89932
FLOCK 4BE-7             
1 60481U 24149P   26087.77190628  .00025028  00000+0  69161-3 0  9994
2 60481  97.3778 170.3532 0003833 168.1451 191.9884 15.37026702 89882
FLOCK 4BE-16            
1 60483U 24149R   26087.77027344  .00375552  00000+0  20708-2 0  9993
2 60483  97.3662 174.4959 0005337 208.6844 151.4130 15.78638215 90162
FLOCK 4BE-26            
1 60484U 24149S   26087.71763735  .00132669  00000+0  24771-2 0  9993
2 60484  97.3727 170.9014 0006399 193.3280 166.7803 15.48264581 89938
TOMORROW-S2             
1 60485U 24149T   26087.77064786  .00023941  00000+0  78883-3 0  9996
2 60485  97.3842 168.9758 0003244 167.3329 192.7995 15.31460811 89779
