[{"OBJECT_NAME":"TRANSPORTER-11 OBJECT A","OBJECT_ID":"2024-149A","EPOCH":"2026-03-28T21:25:06.414240","MEAN_MOTION":15.31531841,"ECCENTRICITY":0.00046157,"INCLINATION":97.3759,"RA_OF_ASC_NODE":168.1461,"ARG_OF_PERICENTER":133.6733,"MEAN_ANOMALY":226.4891,"EPHEMERIS_TYPE":0,"CLASSIFICATION_TYPE":"U","NORAD_CAT_ID":60468,"ELEMENT_SET_NO":999,"REV_AT_EPOCH":8976,"BSTAR":0.00038610375,"MEAN_MOTION_DOT":0.00011688,"MEAN_MOTION_DDOT":0},{"OBJECT_NAME":"WARATAH SEED-1","OBJECT_ID":"2024-149B","EPOCH":"2026-03-28T19:03:50.239008","MEAN_MOTION":15.33850841,"ECCENTRICITY":0.00031301,"INCLINATION":97.3719,"RA_OF_ASC_NODE":168.4126,"ARG_OF_PERICENTER":133.7516,"MEAN_ANOMALY":226.3986,"EPHEMERIS_TYPE":0,"CLASSIFICATION_TYPE":"U","NORAD_CAT_ID":60469,"ELEMENT_SET_NO":999,"REV_AT_EPOCH":8978,"BSTAR":0.00049784268,"MEAN_MOTION_DOT":0.00016239,"MEAN_MOTION_DDOT":0},{"OBJECT_NAME":"PHISAT 2","OBJECT_ID":"2024-149C","EPOCH":"2026-03-28T19:46:23.629440","MEAN_MOTION":15.29861737,"ECCENTRICITY":0.00027198,"INCLINATION":97.3785,"RA_OF_ASC_NODE":167.551,"ARG_OF_PERICENTER":133.2963,"MEAN_ANOMALY":226.8504,"EPHEMERIS_TYPE":0,"CLASSIFICATION_TYPE":"U","NORAD_CAT_ID":60470,"ELEMENT_SET_NO":999,"REV_AT_EPOCH":8970,"BSTAR":0.00031656241,"MEAN_MOTION_DOT":9.081e-5,"MEAN_MOTION_DDOT":0},{"OBJECT_NAME":"LEMUR-2-TOMATOKECHUP","OBJECT_ID":"2024-149D","EPOCH":"2026-03-28T22:26:19.241952","MEAN_MOTION":15.34295691,"ECCENTRICITY":0.00029353,"INCLINATION":97.3819,"RA_OF_ASC_NODE":169.8768,"ARG_OF_PERICENTER":137.024,"MEAN_ANOMALY":223.1233,"EPHEMERIS_TYPE":0,"CLASSIFICATION_TYPE":"U","NORAD_CAT_ID":60471,"ELEMENT_SET_NO":999,"REV_AT_EPOCH":8985,"BSTAR":0.00042694531,"MEAN_MOTION_DOT":0.00014108,"MEAN_MOTION_DDOT":0},{"OBJECT_NAME":"CONNECTA IOT-1","OBJECT_ID":"2024-149E","EPOCH":"2026-03-28T18:05:40.546464","MEAN_MOTION":15.22874699,"ECCENTRICITY":0.00023451,"INCLINATION":97.3793,"RA_OF_ASC_NODE":165.4311,"ARG_OF_PERICENTER":154.851,"MEAN_ANOMALY":205.2841,"EPHEMERIS_TYPE":0,"CLASSIFICATION_TYPE":"U","NORAD_CAT_ID":60472,"ELEMENT_SET_NO":999,"REV_AT_EPOCH":8955,"BSTAR":0.00018126903,"MEAN_MOTION_DOT":4.177e-5,"MEAN_MOTION_DDOT":0},{"OBJECT_NAME":"LOPEN","OBJECT_ID":"2024-149F","EPOCH":"2026-03-28T22:28:05.620224","MEAN_MOTION":15.37288778,"ECCENTRICITY":0.00022579,"INCLINATION":97.3797,"RA_OF_ASC_NODE":170.8162,"ARG_OF_PERICENTER":145.6527,"MEAN_ANOMALY":214.4864,"EPHEMERIS_TYPE":0,"CLASSIFICATION_TYPE":"U","NORAD_CAT_ID":60473,"ELEMENT_SET_NO":999,"REV_AT_EPOCH":8992,"BSTAR":0.00052676442,"MEAN_MOTION_DOT":0.00019188,"MEAN_MOTION_DDOT":0},{"OBJECT_NAME":"ROCK","OBJECT_ID":"2024-149G","EPOCH":"2026-03-28T11:13:01.301088","MEAN_MOTION":15.37284619,"ECCENTRICITY":0.00026381,"INCLINATION":97.379,"RA_OF_ASC_NODE":170.3642,"ARG_OF_PERICENTER":145.7479,"MEAN_ANOMALY":214.3936,"EPHEMERIS_TYPE":0,"CLASSIFICATION_TYPE":"U","NORAD_CAT_ID":60474,"ELEMENT_SET_NO":999,"REV_AT_EPOCH":8985,"BSTAR":0.00051415146,"MEAN_MOTION_DOT":0.00018723,"MEAN_MOTION_DDOT":0},{"OBJECT_NAME":"CONNECTA IOT-3","OBJECT_ID":"2024-149H","EPOCH":"2026-03-28T18:37:11.628192","MEAN_MOTION":15.22881066,"ECCENTRICITY":0.00034608,"INCLINATION":97.377,"RA_OF_ASC_NODE":165.2299,"ARG_OF_PERICENTER":159.0155,"MEAN_ANOMALY":201.1224,"EPHEMERIS_TYPE":0,"CLASSIFICATION_TYPE":"U","NORAD_CAT_ID":60475,"ELEMENT_SET_NO":999,"REV_AT_EPOCH":8956,"BSTAR":0.00021582542,"MEAN_MOTION_DOT":4.988e-5,"MEAN_MOTION_DDOT":0},{"OBJECT_NAME":"QUBE","OBJECT_ID":"2024-149J","EPOCH":"2026-03-28T18:00:10.246176","MEAN_MOTION":15.43437193,"ECCENTRICITY":0.00030967,"INCLINATION":97.3793,"RA_OF_ASC_NODE":172.8616,"ARG_OF_PERICENTER":145.9972,"MEAN_ANOMALY":214.1475,"EPHEMERIS_TYPE":0,"CLASSIFICATION_TYPE":"U","NORAD_CAT_ID":60476,"ELEMENT_SET_NO":999,"REV_AT_EPOCH":9004,"BSTAR":0.00063100168,"MEAN_MOTION_DOT":0.00028201,"MEAN_MOTION_DDOT":0},{"OBJECT_NAME":"WREN-1","OBJECT_ID":"2024-149L","EPOCH":"2026-03-28T18:09:01.763424","MEAN_MOTION":15.38327127,"ECCENTRICITY":0.00049905,"INCLINATION":97.3785,"RA_OF_ASC_NODE":171.2142,"ARG_OF_PERICENTER":176.1404,"MEAN_ANOMALY":183.988,"EPHEMERIS_TYPE":0,"CLASSIFICATION_TYPE":"U","NORAD_CAT_ID":60478,"ELEMENT_SET_NO":999,"REV_AT_EPOCH":8994,"BSTAR":0.0006664991,"MEAN_MOTION_DOT":0.00025158,"MEAN_MOTION_DDOT":0},{"OBJECT_NAME":"TOMORROW-S1","OBJECT_ID":"2024-149M","EPOCH":"2026-03-28T22:27:16.426656","MEAN_MOTION":15.31537174,"ECCENTRICITY":0.00035677,"INCLINATION":97.3775,"RA_OF_ASC_NODE":168.7249,"ARG_OF_PERICENTER":147.9749,"MEAN_ANOMALY":212.171,"EPHEMERIS_TYPE":0,"CLASSIFICATION_TYPE":"U","NORAD_CAT_ID":60479,"ELEMENT_SET_NO":999,"REV_AT_EPOCH":8980,"BSTAR":0.0003151343,"MEAN_MOTION_DOT":9.524e-5,"MEAN_MOTION_DDOT":0},{"OBJECT_NAME":"FLOCK 4BE-18","OBJECT_ID":"2024-149N","EPOCH":"2026-03-28T19:07:40.389600","MEAN_MOTION":15.391005,"ECCENTRICITY":0.00046559,"INCLINATION":97.3753,"RA_OF_ASC_NODE":170.8433,"ARG_OF_PERICENTER":170.138,"MEAN_ANOMALY":189.9958,"EPHEMERIS_TYPE":0,"CLASSIFICATION_TYPE":"U","NORAD_CAT_ID":60480,"ELEMENT_SET_NO":999,"REV_AT_EPOCH":8993,"BSTAR":0.00061369704,"MEAN_MOTION_DOT":0.00023744,"MEAN_MOTION_DDOT":0},{"OBJECT_NAME":"FLOCK 4BE-7","OBJECT_ID":"2024-149P","EPOCH":"2026-03-28T18:31:32.702592","MEAN_MOTION":15.37026702,"ECCENTRICITY":0.00038337,"INCLINATION":97.3778,"RA_OF_ASC_NODE":170.3532,"ARG_OF_PERICENTER":168.1451,"MEAN_ANOMALY":191.9884,"EPHEMERIS_TYPE":0,"CLASSIFICATION_TYPE":"U","NORAD_CAT_ID":60481,"ELEMENT_SET_NO":999,"REV_AT_EPOCH":8988,"BSTAR":0.00069160795,"MEAN_MOTION_DOT":0.00025028,"MEAN_MOTION_DDOT":0},{"OBJECT_NAME":"FLOCK 4BE-16","OBJECT_ID":"2024-149R","EPOCH":"2026-03-28T18:29:11.625216","MEAN_MOTION":15.78638215,"ECCENTRICITY":0.00053375,"INCLINATION":97.3662,"RA_OF_ASC_NODE":174.4959,"ARG_OF_PERICENTER":208.6844,"MEAN_ANOMALY":151.413,"EPHEMERIS_TYPE":0,"CLASSIFICATION_TYPE":"U","NORAD_CAT_ID":60483,"ELEMENT_SET_NO":999,"REV_AT_EPOCH":9016,"BSTAR":0.0020708327,"MEAN_MOTION_DOT":0.00375552,"MEAN_MOTION_DDOT":0},{"OBJECT_NAME":"FLOCK 4BE-26","OBJECT_ID":"2024-149S","EPOCH":"2026-03-28T17:13:23.867040","MEAN_MOTION":15.48264581,"ECCENTRICITY":0.0006399,"INCLINATION":97.3727,"RA_OF_ASC_NODE":170.9014,"ARG_OF_PERICENTER":193.328,"MEAN_ANOMALY":166.7803,"EPHEMERIS_TYPE":0,"CLASSIFICATION_TYPE":"U","NORAD_CAT_ID":60484,"ELEMENT_SET_NO":999,"REV_AT_EPOCH":8993,"BSTAR":0.0024771,"MEAN_MOTION_DOT":0.00132669,"MEAN_MOTION_DDOT":0},{"OBJECT_NAME":"TOMORROW-S2","OBJECT_ID":"2024-149T","EPOCH":"2026-03-28T18:29:43.975104","MEAN_MOTION":15.31460811,"ECCENTRICITY":0.0003244,"INCLINATION":97.3842,"RA_OF_ASC_NODE":168.9758,"ARG_OF_PERICENTER":167.3329,"MEAN_ANOMALY":192.7995,"EPHEMERIS_TYPE":0,"CLASSIFICATION_TYPE":"U","NORAD_CAT_ID":60485,"ELEMENT_SET_NO":999,"REV_AT_EPOCH":8977,"BSTAR":0.00078883122,"MEAN_MOTION_DOT":0.00023941,"MEAN_MOTION_DDOT":0}]
